INTELSAT 902 (IS-902)   
1 26900U 01039A   26114.84411264 -.00000294  00000+0  00000+0 0  9998
2 26900   5.9840  72.4194 0004541 318.0064  76.2325  1.00271528 90165
INTELSAT 904 (IS-904)   
1 27380U 02007A   26114.70528074 -.00000236  00000+0  00000+0 0  9996
2 27380   6.7893  69.8123 0007623 337.4104  27.9231  1.00269992 51237
DIRECTV 5 (TEMPO 1)     
1 27426U 02023A   26114.63357382 -.00000068  00000+0  00000+0 0  9992
2 27426   4.7433  75.9575 0003369 317.4140 297.2692  1.00271546 87584
INTELSAT 905 (IS-905)   
1 27438U 02027A   26114.64446779  .00000083  00000+0  00000+0 0  9995
2 27438   6.6218  70.4310 0003312 335.6291 261.4170  1.00272573 50825
GALAXY 3C (G-3C)        
1 27445U 02030A   26114.83527259 -.00000164  00000+0  00000+0 0  9992
2 27445   3.5940  78.6878 0001475  26.3949 313.6094  1.00271512 45957
INTELSAT 906 (IS-906)   
1 27513U 02041A   26114.43901389  .00000002  00000+0  00000+0 0  9996
2 27513   5.6676  73.5679 0003926 336.3491  24.7721  1.00273871 86495
GALAXY 13 (HORIZONS-1)  
1 27954U 03044A   26114.75304729  .00000119  00000+0  00000+0 0  9998
2 27954   1.2812  84.4929 0002216 311.4192 297.9563  1.00272555 46032
INTELSAT 10-02          
1 28358U 04022A   26114.78260075  .00000000  00000+0  00000+0 0  9991
2 28358   0.0148  80.2858 0001201 340.8439  72.3911  1.00267623 80027
DIRECTV 8               
1 28659U 05019A   26114.64002971  .00000000  00000+0  00000+0 0  9996
2 28659   0.0160 231.9935 0003078 165.8808 286.1493  1.00270589 76531
GALAXY 28 (G-28)        
1 28702U 05022A   26114.19419866 -.00000213  00000+0  00000+0 0  9991
2 28702   3.1622  79.5748 0002903 315.0365 220.4195  1.00268429 51430
GALAXY 16 (G-16)        
1 29236U 06023A   26114.83440594 -.00000141  00000+0  00000+0 0  9999
2 29236   0.0247 233.6281 0003104 168.7168  11.8906  1.00271527 72433
DIRECTV 9S              
1 29494U 06043A   26114.62013416 -.00000126  00000+0  00000+0 0  9996
2 29494   2.2843  81.5105 0004055 327.0872 286.0945  1.00271322 50841
GALAXY 17 (G-17)        
1 31307U 07016B   26114.55201387 -.00000218  00000+0  00000+0 0  9993
2 31307   2.8383  80.5429 0004155 326.1330 279.6326  1.00271199 69269
INTELSAT 11 (IS-11)     
1 32253U 07044B   26114.78286075 -.00000178  00000+0  00000+0 0  9992
2 32253   3.4284  79.2902 0001605 221.5988 194.3269  0.99052463 67920
HORIZONS-2              
1 32388U 07063B   26114.83943263 -.00000266  00000+0  00000+0 0  9995
2 32388   2.4664  81.2490 0003337 318.8263  41.1851  1.00272928 67272
DIRECTV 11              
1 32729U 08013A   26114.83431926 -.00000139  00000+0  00000+0 0  9997
2 32729   0.0069  84.3148 0000572 262.6978  67.0081  1.00267432 45053
GALAXY 18 (G-18)        
1 32951U 08024A   26114.68708066  .00000011  00000+0  00000+0 0  9999
2 32951   0.0225 263.2951 0003128 133.7151 300.0508  1.00271006 45310
INTELSAT 25 (IS-25)     
1 33153U 08034A   26113.08239256 -.00000278  00000+0  00000+0 0  9994
2 33153   2.5670  80.9425 0002165 274.6153 207.9060  0.99965107 65143
GALAXY 19 (G-19)        
1 33376U 08045A   26114.83483926 -.00000154  00000+0  00000+0 0  9995
2 33376   0.0133 251.5593 0003190 156.0907   8.7415  1.00271930 64369
FM-5                    
1 35493U 09034A   26113.98141713 -.00000214  00000+0  00000+0 0  9993
2 35493   0.0153 255.9240 0000619  28.8065 194.4410  1.00270600 46107
INTELSAT 14 (IS-14)     
1 36097U 09064A   26114.84515264  .00000000  00000+0  00000+0 0  9991
2 36097   0.0089 236.5954 0002469 155.6549  79.8790  1.00269944 60072
INTELSAT 15 (IS-15)     
1 36106U 09067A   26114.79966950 -.00000200  00000+0  00000+0 0  9994
2 36106   0.0068  73.6124 0002213 317.4944 194.7522  1.00272014 40691
DIRECTV 12              
1 36131U 09075A   26114.61978749 -.00000118  00000+0  00000+0 0  9999
2 36131   0.0143 101.1606 0000196 269.6926 322.1887  1.00271870 46013
INTELSAT 16 (IS-16)     
1 36397U 10006A   26114.83899928 -.00000259  00000+0  00000+0 0  9990
2 36397   0.0006  69.0906 0001980 346.6494  22.9696  1.00271920 59112
XM-5                    
1 37185U 10053A   26114.68864067 -.00000037  00000+0  00000+0 0  9991
2 37185   0.0633 271.1766 0003424 278.0147 156.2398  1.00269936 56944
INTELSAT 17 (IS-17)     
1 37238U 10065B   26114.73835670 -.00000016  00000+0  00000+0 0  9994
2 37238   0.0141 215.3754 0002825 191.4402 137.7607  1.00271192 52715
INTELSAT 28 (IS-28)     
1 37392U 11016A   26114.84783933 -.00000238  00000+0  00000+0 0  9994
2 37392   1.6700  83.2321 0004087 313.8703  89.2857  1.00271110 52754
INTELSAT 18 (IS-18)     
1 37834U 11056A   26114.81838961  .00000039  00000+0  00000+0 0  9996
2 37834   0.0194 248.1497 0001806 135.7227 303.5853  1.00272592 53270
INTELSAT 22 (IS-22)     
1 38098U 12011A   26114.79706949 -.00000073  00000+0  00000+0 0  9997
2 38098   0.0183 120.0504 0001772 277.4161 174.4066  1.00270564  6659
INTELSAT 19 (IS-19)     
1 38356U 12030A   26114.81561625 -.00000071  00000+0  00000+0 0  9996
2 38356   0.0151 125.1760 0002862 267.0142 280.2761  1.00271820 49916
INTELSAT 20 (IS-20)     
1 38740U 12043A   26114.74797388 -.00000039  00000+0  00000+0 0  9990
2 38740   0.0105 216.9936 0002081 319.7624  13.7927  1.00271214 50214
INTELSAT 21 (IS-21)     
1 38749U 12045A   26114.84255264 -.00000299  00000+0  00000+0 0  9992
2 38749   0.0551  76.5328 0001959 325.2970  56.3542  1.00271513 49993
INTELSAT 23 (IS-23)     
1 38867U 12057A   26114.84359264 -.00000299  00000+0  00000+0 0  9991
2 38867   0.0123 271.6020 0000038  71.2364 120.7034  1.00268096 49420
FM-6                    
1 39360U 13058A   26114.68846735 -.00000029  00000+0  00000+0 0  9999
2 39360   0.0121 249.6913 0000269 255.8599 198.6628  1.00264998 45537
INTELSAT 30 (IS-30)     
1 40271U 14062A   26114.39488936 -.00000165  00000+0  00000+0 0  9992
2 40271   0.0073 224.7449 0002247  46.3663 348.4158  1.00269572  6259
DIRECTV 14              
1 40333U 14078B   26114.54924051 -.00000140  00000+0  00000+0 0  9991
2 40333   0.0086  45.8164 0000554 119.2614 145.9864  1.00270374 41506
DIRECTV 15              
1 40663U 15026A   26114.61978749 -.00000117  00000+0  00000+0 0  9996
2 40663   0.0358  74.9045 0000346 142.3222 115.6608  1.00273147 39920
SKY MEXICO-1            
1 40664U 15026B   26114.83847927 -.00000249  00000+0  00000+0 0  9990
2 40664   0.0360  73.6445 0002011 311.2005  51.0553  1.00271643 39911
INTELSAT 34 (IS-34)     
1 40874U 15039A   26114.84307264 -.00000300  00000+0  00000+0 0  9991
2 40874   0.0143 283.1286 0000390  35.7702 141.9760  1.00271931 39104
INTELSAT 31 (IS-31)     
1 41581U 16035A   26114.83518594 -.00000165  00000+0  00000+0 0  9992
2 41581   0.0104 233.8797 0002303  40.7518 143.8486  1.00269559 36143
INTELSAT 36 (IS-36)     
1 41747U 16053A   26114.74797455 -.00000037  00000+0  00000+0 0  9999
2 41747   0.0180 343.2795 0000966 335.7795 231.4739  1.00263860 35426
INTELSAT 32E (IS-32E)   
1 41945U 17007B   26114.84549932  .00000000  00000+0  00000+0 0  9994
2 41945   0.0152 235.0770 0000545  92.8548 146.1440  1.00268181 33695
INTELSAT 35E (IS-35E)   
1 42818U 17041A   26114.84723264  .00000000  00000+0  00000+0 0  9994
2 42818   0.0148 227.9670 0002123 160.7223  94.6943  1.00271892 32280
INTELSAT 37E (IS-37E)   
1 42950U 17059A   26114.77922073 -.00000155  00000+0  00000+0 0  9993
2 42950   0.0092 220.8607 0002047 192.3179  62.1446  1.00271652 31532
AZERSPACE 2 (IS-38)     
1 43632U 18074A   26114.72044748  .00000000  00000+0  00000+0 0  9996
2 43632   0.0173 237.3176 0001475 150.6005 129.3036  1.00270269 27914
HORIZONS-3E             
1 43633U 18074B   26114.81622293 -.00000045  00000+0  00000+0 0  9994
2 43633   0.0336  81.7899 0000706 244.2487 349.6329  1.00271288 27801
AT&T T-16               
1 44333U 19034A   26114.83405926 -.00000129  00000+0  00000+0 0  9996
2 44333   0.0301  77.9088 0000613 172.2347 162.1178  1.00269125 25096
INTELSAT 39 (IS-39)     
1 44476U 19049B   26114.71788383  .00000019  00000+0  00000+0 0  9995
2 44476   0.0196 247.4564 0000690 359.4134 286.2561  1.00270936 24597
GALAXY 30 (G-30)        
1 46114U 20056C   26114.68673399  .00000000  00000+0  00000+0 0  9992
2 46114   0.0153 237.0951 0002336 166.3953 291.4419  1.00270664 20751
GALAXY 33 (G-33)        
1 54026U 22128A   26114.80561499  .00000065  00000+0  00000+0 0  9997
2 54026   0.0086 127.3338 0001827 252.7444 349.7688  1.00270272 13208
GALAXY 34 (G-34)        
1 54027U 22128B   26114.64127506  .00000000  00000+0  00000+0 0  9996
2 54027   0.0115 231.4323 0001362 159.0778 284.0091  1.00270737 13379
GALAXY 31 (G-31)        
1 54243U 22153A   26114.68751399 -.00000001  00000+0  00000+0 0  9993
2 54243   0.0265 119.7477 0001265 263.9476 315.5182  1.00270737  6592
GALAXY 32 (G-32)        
1 54244U 22153B   26114.83605262 -.00000189  00000+0  00000+0 0  9995
2 54244   0.0088 278.4190 0002805 100.3156  44.1019  1.00271075 12600
GALAXY 35 (G-35)        
1 54741U 22170A   26114.83561926 -.00000177  00000+0  00000+0 0  9991
2 54741   0.0137 158.8562 0001951 231.4197  30.2923  1.00271712 12353
GALAXY 36 (G-36)        
1 54742U 22170B   26114.83648595 -.00000200  00000+0  00000+0 0  9997
2 54742   0.0110 208.3058 0002619 214.2978   2.3925  1.00271621 12232
GALAXY 37 (G-37)        
1 57493U 23112A   26114.68630066  .00000034  00000+0  00000+0 0  9991
2 57493   0.0183 257.5861 0002050 125.8196 309.3778  1.00270910 10003
